[{"OBJECT_NAME":"STARLINK-2292","OBJECT_ID":"2021-024AY","EPOCH":"2026-03-10T00:00:02.999808","MEAN_MOTION":15.13637782,"ECCENTRICITY":0.00019543,"INCLINATION":53.0827,"RA_OF_ASC_NODE":330.0861,"ARG_OF_PERICENTER":75.6731,"MEAN_ANOMALY":66.4802,"EPHEMERIS_TYPE":0,"CLASSIFICATION_TYPE":"U","NORAD_CAT_ID":48023,"ELEMENT_SET_NO":999,"REV_AT_EPOCH":579,"BSTAR":0.001671296,"MEAN_MOTION_DOT":0.00030213,"MEAN_MOTION_DDOT":0},{"OBJECT_NAME":"FENGYUN 1C DEB","OBJECT_ID":"1999-025CAL","EPOCH":"2026-03-09T07:00:43.678944","MEAN_MOTION":15.11095595,"ECCENTRICITY":0.01530884,"INCLINATION":98.0969,"RA_OF_ASC_NODE":245.5084,"ARG_OF_PERICENTER":64.0772,"MEAN_ANOMALY":297.6143,"EPHEMERIS_TYPE":0,"CLASSIFICATION_TYPE":"U","NORAD_CAT_ID":31630,"ELEMENT_SET_NO":999,"REV_AT_EPOCH":99895,"BSTAR":0.00096285175,"MEAN_MOTION_DOT":0.00021366,"MEAN_MOTION_DDOT":0}]
